NORAD_CAT_ID,OBJECT_NAME,OBJECT_TYPE,EPOCH,MEAN_MOTION,ECCENTRICITY,INCLINATION,RA_OF_ASC_NODE,ARG_OF_PERICENTER,MEAN_ANOMALY,BSTAR,MEAN_MOTION_DOT,MEAN_MOTION_DDOT,TLE_LINE0,TLE_LINE1,TLE_LINE2,SEMIMAJOR_AXIS,PERIOD,APOGEE,PERIGEE,DECAYED
52697.0,STARLINK-4018,PAYLOAD,2022-12-13 11:07:48,15.08838066,0.0002305,53.2181,56.348,32.0436,328.0696,8.62e-05,1.084e-05,0.0,0 STARLINK-4018,1 52697U 22053AT  22347.46375668  .00001084  00000-0  86200-4 0  9997,2 52697  53.2181  56.3480 0002305  32.0436 328.0696 15.08838066 32616,6917.886,95.438,541.346,538.1569999999998,0.0
52697.0,STARLINK-4018,PAYLOAD,2022-12-13 15:53:57,15.08840665,0.0002345,53.2179,55.4558,32.7027,327.411,0.00010287,1.349e-05,0.0,0 STARLINK-4018,1 52697U 22053AT  22347.66247477  .00001349  00000-0  10287-3 0  9990,2 52697  53.2179  55.4558 0002345  32.7027 327.4110 15.08840665 32641,6917.878000000002,95.438,541.366,538.121,0.0
52697.0,STARLINK-4018,PAYLOAD,2022-12-14 07:47:48,15.08846549,0.0002422,53.2174,52.4827,33.4122,326.7023,8.9232e-05,1.132e-05,0.0,0 STARLINK-4018,1 52697U 22053AT  22348.32486951  .00001132  00000-0  89232-4 0  9993,2 52697  53.2174  52.4827 0002422  33.4122 326.7023 15.08846549 32330,6917.86,95.437,541.401,538.05,0.0
52697.0,STARLINK-4018,PAYLOAD,2022-12-14 10:58:35,15.08844614,0.0002532,53.219,51.8894,31.0003,329.1139,6.1201e-05,6.86e-06,0.0,0 STARLINK-4018,1 52697U 22053AT  22348.45735174  .00000686  00000-0  61201-4 0  9990,2 52697  53.2190  51.8894 0002532  31.0003 329.1139 15.08844614 32762,6917.866,95.437,541.4830000000002,537.98,0.0
52697.0,STARLINK-4018,PAYLOAD,2022-12-14 15:44:44,15.08841089,0.0002369,53.2182,50.9961,35.6382,324.4768,3.3743e-05,2.49e-06,0.0,0 STARLINK-4018,1 52697U 22053AT  22348.65607403  .00000249  00000-0  33743-4 0  9990,2 52697  53.2182  50.9961 0002369  35.6382 324.4768 15.08841089 32383,6917.877,95.437,541.381,538.1030000000002,0.0
52697.0,STARLINK-4018,PAYLOAD,2022-12-15 14:00:08,15.08844843,0.0002579,53.2199,46.8358,22.3678,337.7426,0.00011717,1.577e-05,0.0,0 STARLINK-4018,1 52697U 22053AT  22349.58342995  .00001577  00000-0  11717-3 0  9996,2 52697  53.2199  46.8358 0002579  22.3678 337.7426 15.08844843 32939,6917.866,95.437,541.515,537.946,0.0
52697.0,STARLINK-4018,PAYLOAD,2022-12-16 10:40:09,15.08849789,0.0002578,53.2182,42.9697,31.1819,328.9325,-6.1035e-05,-1.26e-05,0.0,0 STARLINK-4018,1 52697U 22053AT  22350.44455129 -.00001260  00000-0 -61035-4 0  9997,2 52697  53.2182  42.9697 0002578  31.1819 328.9325 15.08849789 32651,6917.85,95.437,541.499,537.932,0.0
52697.0,STARLINK-4018,PAYLOAD,2022-12-16 13:50:55,15.0885223,0.0002578,53.2186,42.3744,31.5429,328.5718,-6.199100000000001e-05,-1.275e-05,0.0,0 STARLINK-4018,1 52697U 22053AT  22350.57702876 -.00001275  00000-0 -61991-4 0  9992,2 52697  53.2186  42.3744 0002578  31.5429 328.5718 15.08852230 33088,6917.843000000003,95.437,541.491,537.925,0.0
52697.0,STARLINK-4018,PAYLOAD,2022-12-17 12:06:20,15.08835241,0.0002673,53.219,38.2109,26.0257,334.0869,-2.8726e-05,-7.46e-06,0.0,0 STARLINK-4018,1 52697U 22053AT  22351.50440061 -.00000746  00000-0 -28726-4 0  9992,2 52697  53.2190  38.2109 0002673  26.0257 334.0869 15.08835241 33224,6917.895,95.438,541.609,537.911,0.0
52697.0,STARLINK-4018,PAYLOAD,2022-12-17 20:03:16,15.08825443,0.0002759,53.2188,36.7238,28.7621,331.3523,1.526e-05,-4.6e-07,0.0,0 STARLINK-4018,1 52697U 22053AT  22351.83560747 -.00000046  00000-0  15260-4 0  9993,2 52697  53.2188  36.7238 0002759  28.7621 331.3523 15.08825443 33271,6917.925,95.438,541.6990000000002,537.881,0.0
52697.0,STARLINK-4018,PAYLOAD,2022-12-18 04:00:12,15.08827409,0.0002738,53.2181,35.2376,29.5636,330.551,-2.6443e-05,-7.09e-06,0.0,0 STARLINK-4018,1 52697U 22053AT  22352.16680923 -.00000709  00000-0 -26443-4 0  9991,2 52697  53.2181  35.2376 0002738  29.5636 330.5510 15.08827409 32914,6917.919,95.438,541.678,537.89,0.0
52697.0,STARLINK-4018,PAYLOAD,2022-12-18 11:57:07,15.08834504,0.0002751,53.2179,33.7507,33.4264,326.6902,1.9491e-05,2.2e-07,0.0,0 STARLINK-4018,1 52697U 22053AT  22352.49800584  .00000022  00000-0  19491-4 0  9995,2 52697  53.2179  33.7507 0002751  33.4264 326.6902 15.08834504 33372,6917.897,95.438,541.665,537.859,0.0
52697.0,STARLINK-4018,PAYLOAD,2022-12-18 15:07:53,15.08839346,0.0002809,53.2175,33.1556,31.4839,328.6321,6.0987e-05,6.82e-06,0.0,0 STARLINK-4018,1 52697U 22053AT  22352.63048204  .00000682  00000-0  60987-4 0  9992,2 52697  53.2175  33.1556 0002809  31.4839 328.6321 15.08839346 32988,6917.882,95.438,541.691,537.804,0.0
52697.0,STARLINK-4018,PAYLOAD,2022-12-18 19:54:03,15.08827888,0.0002274,53.2187,32.2636,18.7327,341.3748,-6.0788e-05,-1.255e-05,0.0,0 STARLINK-4018,1 52697U 22053AT  22352.82921053 -.00001255  00000-0 -60788-4 0  9993,2 52697  53.2187  32.2636 0002274  18.7327 341.3748 15.08827888 33429,6917.917,95.438,541.356,538.2090000000002,0.0
52697.0,STARLINK-4018,PAYLOAD,2022-12-19 07:01:46,15.08826427,0.0002449,53.2178,30.1813,25.4023,334.7089,4.352100000000001e-05,4.04e-06,0.0,0 STARLINK-4018,1 52697U 22053AT  22353.29289371  .00000404  00000-0  43521-4 0  9994,2 52697  53.2178  30.1813 0002449  25.4023 334.7089 15.08826427 33494,6917.922,95.438,541.481,538.0930000000002,0.0
52697.0,STARLINK-4018,PAYLOAD,2022-12-19 19:44:50,15.08834887,0.0002602,53.2162,27.8022,32.7395,327.3758,5.1593e-05,5.33e-06,0.0,0 STARLINK-4018,1 52697U 22053AT  22353.82281027  .00000533  00000-0  51593-4 0  9994,2 52697  53.2162  27.8022 0002602  32.7395 327.3758 15.08834887 33575,6917.896,95.438,541.561,537.961,0.0
52697.0,STARLINK-4018,PAYLOAD,2022-12-20 11:38:41,15.08845789,0.00026,53.2157,24.8287,36.4835,323.6334,0.00015569,2.191e-05,0.0,0 STARLINK-4018,1 52697U 22053AT  22354.48520403  .00002191  00000-0  15569-3 0  9995,2 52697  53.2157  24.8287 0002600  36.4835 323.6334 15.08845789 33670,6917.863,95.437,541.526,537.929,0.0
52697.0,STARLINK-4018,PAYLOAD,2022-12-21 08:18:43,15.08832459,0.0002654,53.2159,20.9641,41.56,318.5594,4.3955e-05,4.11e-06,0.0,0 STARLINK-4018,1 52697U 22053AT  22355.34633954  .00000411  00000-0  43955-4 0  9991,2 52697  53.2159  20.9641 0002654  41.5600 318.5594 15.08832459 33399,6917.903,95.438,541.604,537.932,0.0
52697.0,STARLINK-4018,PAYLOAD,2022-12-21 13:04:52,15.08841695,0.0002468,53.2158,20.0707,41.9011,318.217,2.6788e-05,1.38e-06,0.0,0 STARLINK-4018,1 52697U 22053AT  22355.54505403  .00000138  00000-0  26788-4 0  9991,2 52697  53.2158  20.0707 0002468  41.9011 318.2170 15.08841695 33428,6917.875,95.437,541.448,538.033,0.0
52697.0,STARLINK-4018,PAYLOAD,2022-12-22 01:47:58,15.08835363,0.0002501,53.2157,17.6918,43.0957,317.0231,4.3459e-05,4.03e-06,0.0,0 STARLINK-4018,1 52697U 22053AT  22356.07497910  .00000403  00000-0  43459-4 0  9992,2 52697  53.2157  17.6918 0002501  43.0957 317.0231 15.08835363 33502,6917.895,95.438,541.49,538.029,0.0
52697.0,STARLINK-4018,PAYLOAD,2022-12-22 08:09:30,15.08842722,0.0002479,53.2157,16.502,45.1818,314.9375,0.00010595,1.398e-05,0.0,0 STARLINK-4018,1 52697U 22053AT  22356.33993345  .00001398  00000-0  10595-3 0  9992,2 52697  53.2157  16.5020 0002479  45.1818 314.9375 15.08842722 33543,6917.871999999999,95.437,541.452,538.0219999999998,0.0
52697.0,STARLINK-4018,PAYLOAD,2022-12-22 11:20:16,15.08845589,0.000238,53.2162,15.9067,48.0311,312.0884,5.2124e-05,5.41e-06,0.0,0 STARLINK-4018,1 52697U 22053AT  22356.47241257  .00000541  00000-0  52124-4 0  9999,2 52697  53.2162  15.9067 0002380  48.0311 312.0884 15.08845589 33979,6917.863,95.437,541.375,538.082,0.0
52697.0,STARLINK-4018,PAYLOAD,2022-12-22 12:55:39,15.08847765,0.0002403,53.2162,15.6095,46.5798,313.5394,7.54e-05,9.12e-06,0.0,0 STARLINK-4018,1 52697U 22053AT  22356.53865065  .00000912  00000-0  75400-4 0  9999,2 52697  53.2162  15.6095 0002403  46.5798 313.5394 15.08847765 33986,6917.857,95.437,541.384,538.059,0.0
52697.0,STARLINK-4018,PAYLOAD,2022-12-23 11:11:03,15.08839591,0.0002395,53.216,11.4477,43.9437,316.1745,7.6852e-05,9.35e-06,0.0,0 STARLINK-4018,1 52697U 22053AT  22357.46601465  .00000935  00000-0  76852-4 0  9991,2 52697  53.2160  11.4477 0002395  43.9437 316.1745 15.08839591 34127,6917.882,95.438,541.403,538.09,0.0
52697.0,STARLINK-4018,PAYLOAD,2022-12-23 17:32:36,15.08836685,0.0002433,53.216,10.2578,46.0029,314.1163,4.4723e-05,4.23e-06,0.0,0 STARLINK-4018,1 52697U 22053AT  22357.73097699  .00000423  00000-0  44723-4 0  9993,2 52697  53.2160  10.2578 0002433  46.0029 314.1163 15.08836685 33751,6917.891,95.438,541.439,538.072,0.0
52697.0,STARLINK-4018,PAYLOAD,2022-12-24 01:29:31,15.08843839,0.0002349,53.2155,8.7709,44.2536,315.8644,0.00013175,1.809e-05,0.0,0 STARLINK-4018,1 52697U 22053AT  22358.06216996  .00001809  00000-0  13175-3 0  9998,2 52697  53.2155   8.7709 0002349  44.2536 315.8644 15.08843839 33809,6917.869000000002,95.437,541.359,538.109,0.0
52697.0,STARLINK-4018,PAYLOAD,2022-12-24 11:01:50,15.08844867,0.0002358,53.2153,6.9867,44.3556,315.7625,6.4738e-05,7.42e-06,0.0,0 STARLINK-4018,1 52697U 22053AT  22358.45960968  .00000742  00000-0  64738-4 0  9993,2 52697  53.2153   6.9867 0002358  44.3556 315.7625 15.08844867 34277,6917.866,95.437,541.362,538.099,0.0
52697.0,STARLINK-4018,PAYLOAD,2022-12-24 17:23:22,15.08846289,0.0002376,53.2154,5.7973,44.3121,315.8061,2.9514e-05,1.81e-06,0.0,0 STARLINK-4018,1 52697U 22053AT  22358.72456856  .00000181  00000-0  29514-4 0  9999,2 52697  53.2154   5.7973 0002376  44.3121 315.8061 15.08846289 34311,6917.861,95.437,541.37,538.082,0.0
52697.0,STARLINK-4018,PAYLOAD,2022-12-25 07:41:51,15.08840859,0.0002303,53.2156,3.1207,45.8165,314.3016,1.9514e-05,2.2e-07,0.0,0 STARLINK-4018,1 52697U 22053AT  22359.32073016  .00000022  00000-0  19514-4 0  9992,2 52697  53.2156   3.1207 0002303  45.8165 314.3016 15.08840859 33993,6917.878000000002,95.438,541.336,538.15,0.0
